{"fetched_at":"2026-03-30T06:02:59Z","count":15439,"tles":[{"name":"STARLINK-35401","line1":"1 66067U 25235K   26087.91383755  .00029139  00000+0  99162-3 0  9999","line2":"2 66067  53.1601 156.0555 0001327  89.8810 270.2343 15.30215667 25832","category":"Starlink"}]}